TDRS 11                 
1 39070U 13004A   26074.31270502  .00000081  00000+0  00000+0 0  9993
2 39070   3.3836  29.5646 0004218 343.0970  98.5456  1.00266182 45751
TDRS 12                 
1 39504U 14004A   26074.28056067 -.00000268  00000+0  00000+0 0  9998
2 39504   3.8866  17.4431 0003486 272.3842 303.0019  1.00266322 43334
GPM-CORE                
1 39574U 14009C   26074.27781337  .00009186  00000+0  19962-3 0  9992
2 39574  64.9718 262.7673 0012383 267.5829  92.3894 15.44818903683302
MMS 1                   
1 40482U 15011A   26074.33335648 -.00001869  00000+0  00000+0 0  9993
2 40482  70.8540 350.0647 8404833 165.3680  85.5792  0.28306612  1362
MMS 2                   
1 40483U 15011B   26074.33335648 -.00001870  00000+0  00000+0 0  9996
2 40483  70.8563 350.0660 8405611 165.3741  85.5637  0.28306852  1360
MMS 3                   
1 40484U 15011C   26074.33335648 -.00001869  00000+0  00000+0 0  9995
2 40484  70.8587 350.0707 8404887 165.3682  85.5711  0.28306824  1369
MMS 4                   
1 40485U 15011D   26074.33335648 -.00001869  00000+0  00000+0 0  9996
2 40485  70.8566 350.0658 8404395 165.3756  85.5570  0.28306811  1367
TDRS 13                 
1 42915U 17047A   26074.20801778 -.00000098  00000+0  00000+0 0  9998
2 42915   3.4313   0.3148 0011033  98.7212 137.1934  1.00272198 31406
NOAA 20 (JPSS-1)        
1 43013U 17073A   26074.25575108  .00000070  00000+0  54341-4 0  9998
2 43013  98.7698  14.5877 0001454 130.1629 229.9675 14.19537656431148
